OBJECT_NAME,OBJECT_ID,EPOCH,MEAN_MOTION,ECCENTRICITY,INCLINATION,RA_OF_ASC_NODE,ARG_OF_PERICENTER,MEAN_ANOMALY,EPHEMERIS_TYPE,CLASSIFICATION_TYPE,NORAD_CAT_ID,ELEMENT_SET_NO,REV_AT_EPOCH,BSTAR,MEAN_MOTION_DOT,MEAN_MOTION_DDOT
KAZEOSAT 2,2014-033A,2026-06-10T13:28:20.921664,14.85460235,.0008509,97.5417,1.5235,352.0398,8.0682,0,U,40010,999,64797,.21951E-4,.139E-5,0
HODOYOSHI-4,2014-033B,2026-06-10T12:16:56.159040,14.88110227,.0023046,97.5457,346.6567,331.2928,28.7020,0,U,40011,999,64781,.55445E-4,.46E-5,0
DEIMOS-2,2014-033D,2026-06-10T13:13:49.770336,14.93711812,.0001991,97.5844,36.2729,58.4165,301.7250,0,U,40013,999,63673,.15619E-3,.1598E-4,0
HODOYOSHI-3,2014-033F,2026-06-10T04:17:59.657280,14.85374333,.003332,97.6411,324.5022,20.2759,339.9771,0,U,40015,999,64658,.11647E-3,.959E-5,0
SPOT 7,2014-034A,2026-06-10T11:16:16.967712,14.60952618,.000119,98.0630,224.1344,88.1957,271.9381,0,U,40053,999,63615,.79678E-4,.345E-5,0
SKYSAT-B,2014-037D,2026-06-10T11:13:52.544064,14.88010442,.0004423,98.3834,120.0501,309.9925,50.0901,0,U,40072,999,64496,.13219E-3,.1152E-4,0
WORLDVIEW-3 (WV-3),2014-048A,2026-06-10T11:55:13.965888,14.85010884,.0001504,97.8566,236.4218,36.1764,323.9552,0,U,40115,999,64091,.8875E-4,.704E-5,0
GAOFEN-2,2014-049A,2026-06-10T11:41:28.501152,14.80893497,.000588,98.0111,225.7009,253.3367,106.7200,0,U,40118,999,63824,.1224E-3,.892E-5,0
YAOGAN-21,2014-053A,2026-06-10T12:59:14.329248,15.26278655,.0009823,97.1481,202.0630,111.9581,248.2704,0,U,40143,999,65394,.36044E-3,.9292E-4,0
YAOGAN-22,2014-063A,2026-06-10T08:11:10.423968,13.15531024,.0006182,100.7715,312.5008,200.8082,159.2779,0,U,40275,999,55891,.28128E-4,-.36E-6,0
ASNARO,2014-070A,2026-06-10T12:10:58.113120,15.19338016,.0004876,97.3448,237.8036,186.4333,173.6840,0,U,40298,999,64299,.46411E-3,.9748E-4,0
YAOGAN-24,2014-072A,2026-06-10T12:10:30.160128,14.76214142,.0012631,98.1476,298.7893,287.3879,72.5949,0,U,40310,999,62273,.6397E-4,.39E-5,0
CBERS 4,2014-079A,2026-06-10T11:38:43.451232,14.35508112,.0002,98.3535,218.5271,70.4231,289.7170,0,U,40336,999,60299,.11659E-3,.293E-5,0
YAOGAN-26,2014-088A,2026-06-10T12:52:55.733088,15.47082620,.0006486,97.0644,161.9024,81.4111,278.7874,0,U,40362,999,63667,.41943E-3,.21191E-3,0
SMAP,2015-003A,2026-06-10T12:22:40.920096,14.63360726,.0001281,98.1276,168.7048,93.5768,266.5580,0,U,40376,999,60664,.82192E-4,.378E-5,0
KOMPSAT-3A,2015-014A,2026-06-10T13:03:53.499744,15.53689658,.0055976,97.6884,152.4220,198.5580,161.3632,0,U,40536,999,62078,.30143E-3,.2054E-3,0
SENTINEL-2A,2015-028A,2026-06-10T12:02:00.122784,14.30822344,.0001083,98.5681,236.4479,88.6460,271.4847,0,U,40697,999,57277,.83292E-4,.175E-5,0
GAOFEN-8,2015-030A,2026-06-10T13:11:45.184992,15.45718275,.0008267,97.6912,354.5236,210.4130,149.6639,0,U,40701,999,61042,.50953E-3,.24596E-3,0
CARBONITE 1 (CBNT-1),2015-032D,2026-06-10T12:07:42.807648,14.83564676,.0013609,97.6510,339.8521,321.7067,38.3180,0,U,40718,999,58835,.12434E-3,.975E-5,0
YAOGAN-27,2015-040A,2026-06-10T11:46:42.465792,13.16068857,.0007516,100.1151,148.1640,227.1430,132.9053,0,U,40878,999,51678,.17775E-3,.25E-6,0
GAOFEN-9 01,2015-047A,2026-06-10T12:24:46.227744,14.82870867,.0027905,97.6278,197.5149,158.9978,201.2389,0,U,40894,999,57920,.10554E-3,.81E-5,0
YAOGAN-28,2015-064A,2026-06-10T12:13:24.791808,15.27335532,.0010027,97.3060,299.9081,207.3144,152.7569,0,U,41026,999,58966,.25377E-3,.673E-4,0
YAOGAN-29,2015-069A,2026-06-10T13:34:56.301888,14.83080243,.0002847,98.0034,190.1884,65.5655,294.5855,0,U,41038,999,56964,.86852E-4,.653E-5,0
KENT RIDGE 1,2015-077B,2026-06-10T02:10:53.427360,15.23089070,.00082377,14.9807,318.7632,138.3408,221.7543,0,U,41167,999,58001,.12691533E-3,.3848E-4,0
GAOFEN-4,2015-083A,2026-06-10T12:05:00.773952,1.00272363,.0004251,0.3392,83.8287,113.0883,348.9109,0,U,41194,999,3846,0,-.317E-5,0
JASON-3,2016-002A,2026-06-10T11:28:50.595168,12.87627915,.0008578,66.0395,139.9396,273.0630,86.9407,0,U,41240,999,48638,.13849E-3,-.27E-6,0
SENTINEL-3A,2016-011A,2026-06-10T11:37:05.934144,14.26738099,.0001369,98.6249,228.9637,103.8143,256.3190,0,U,41335,999,53710,.50395E-4,.78E-6,0
ZIYUAN 3-02 (ZY 3-02),2016-033A,2026-06-10T13:07:44.949792,15.21416728,.0011487,97.3837,237.4482,316.2857,43.7468,0,U,41556,999,55697,.21092E-3,.4673E-4,0
CARTOSAT-2C,2016-040A,2026-06-10T11:22:47.651232,15.19264644,.0010098,97.4490,221.5445,151.8205,208.3577,0,U,41599,999,55269,.16656E-3,.3447E-4,0
SKYSAT-C1,2016-040C,2026-06-10T01:13:55.265376,15.36179993,.0004048,96.9572,193.1585,71.6760,288.4925,0,U,41601,999,55677,.24608454E-3,.8604E-4,0
LAPAN-A3,2016-040E,2026-06-10T12:48:21.437280,15.33062269,.00116,97.1485,157.8980,47.4994,312.7227,0,U,41603,999,55379,.95978E-4,.2996E-4,0
