KAZEOSAT 2              
1 40010U 14033A   26161.56135326  .00000139  00000+0  21951-4 0  9997
2 40010  97.5417   1.5235 0008509 352.0398   8.0682 14.85460235647973
HODOYOSHI-4             
1 40011U 14033B   26161.51176110  .00000460  00000+0  55445-4 0  9991
2 40011  97.5457 346.6567 0023046 331.2928  28.7020 14.88110227647814
DEIMOS-2                
1 40013U 14033D   26161.55127049  .00001598  00000+0  15619-3 0  9995
2 40013  97.5844  36.2729 0001991  58.4165 301.7250 14.93711812636735
HODOYOSHI-3             
1 40015U 14033F   26161.17916270  .00000959  00000+0  11647-3 0  9994
2 40015  97.6411 324.5022 0033320  20.2759 339.9771 14.85374333646583
SPOT 7                  
1 40053U 14034A   26161.46964083  .00000345  00000+0  79678-4 0  9992
2 40053  98.0630 224.1344 0001190  88.1957 271.9381 14.60952618636153
SKYSAT-B                
1 40072U 14037D   26161.46796926  .00001152  00000+0  13219-3 0  9990
2 40072  98.3834 120.0501 0004423 309.9925  50.0901 14.88010442644965
WORLDVIEW-3 (WV-3)      
1 40115U 14048A   26161.49668942  .00000704  00000+0  88750-4 0  9994
2 40115  97.8566 236.4218 0001504  36.1764 323.9552 14.85010884640915
GAOFEN-2                
1 40118U 14049A   26161.48713543  .00000892  00000+0  12240-3 0  9993
2 40118  98.0111 225.7009 0005880 253.3367 106.7200 14.80893497638243
YAOGAN-21               
1 40143U 14053A   26161.54113807  .00009292  00000+0  36044-3 0  9991
2 40143  97.1481 202.0630 0009823 111.9581 248.2704 15.26278655653946
YAOGAN-22               
1 40275U 14063A   26161.34109287 -.00000036  00000+0  28128-4 0  9996
2 40275 100.7715 312.5008 0006182 200.8082 159.2779 13.15531024558910
ASNARO                  
1 40298U 14070A   26161.50761705  .00009748  00000+0  46411-3 0  9998
2 40298  97.3448 237.8036 0004876 186.4333 173.6840 15.19338016642998
YAOGAN-24               
1 40310U 14072A   26161.50729352  .00000390  00000+0  63970-4 0  9991
2 40310  98.1476 298.7893 0012631 287.3879  72.5949 14.76214142622736
CBERS 4                 
1 40336U 14079A   26161.48522513  .00000293  00000+0  11659-3 0  9991
2 40336  98.3535 218.5271 0002000  70.4231 289.7170 14.35508112602996
YAOGAN-26               
1 40362U 14088A   26161.53675617  .00021191  00000+0  41943-3 0  9999
2 40362  97.0644 161.9024 0006486  81.4111 278.7874 15.47082620636676
SMAP                    
1 40376U 15003A   26161.51575139  .00000378  00000+0  82192-4 0  9994
2 40376  98.1276 168.7048 0001281  93.5768 266.5580 14.63360726606641
KOMPSAT-3A              
1 40536U 15014A   26161.54436921  .00020540  00000+0  30143-3 0  9993
2 40536  97.6884 152.4220 0055976 198.5580 161.3632 15.53689658620787
SENTINEL-2A             
1 40697U 15028A   26161.50139031  .00000175  00000+0  83292-4 0  9990
2 40697  98.5681 236.4479 0001083  88.6460 271.4847 14.30822344572776
GAOFEN-8                
1 40701U 15030A   26161.54982853  .00024596  00000+0  50953-3 0  9991
2 40701  97.6912 354.5236 0008267 210.4130 149.6639 15.45718275610426
CARBONITE 1 (CBNT-1)    
1 40718U 15032D   26161.50535657  .00000975  00000+0  12434-3 0  9990
2 40718  97.6510 339.8521 0013609 321.7067  38.3180 14.83564676588358
YAOGAN-27               
1 40878U 15040A   26161.49076928  .00000025  00000+0  17775-3 0  9994
2 40878 100.1151 148.1640 0007516 227.1430 132.9053 13.16068857516785
GAOFEN-9 01             
1 40894U 15047A   26161.51720171  .00000810  00000+0  10554-3 0  9998
2 40894  97.6278 197.5149 0027905 158.9978 201.2389 14.82870867579201
YAOGAN-28               
1 41026U 15064A   26161.50931472  .00006730  00000+0  25377-3 0  9998
2 41026  97.3060 299.9081 0010027 207.3144 152.7569 15.27335532589664
YAOGAN-29               
1 41038U 15069A   26161.56592942  .00000653  00000+0  86852-4 0  9991
2 41038  98.0034 190.1884 0002847  65.5655 294.5855 14.83080243569647
KENT RIDGE 1            
1 41167U 15077B   26161.09089615  .00003848  00000+0  12692-3 0  9998
2 41167  14.9807 318.7632 0008237 138.3408 221.7543 15.23089070580010
GAOFEN-4                
1 41194U 15083A   26161.50348118 -.00000317  00000+0  00000+0 0  9992
2 41194   0.3392  83.8287 0004251 113.0883 348.9109  1.00272363 38469
JASON-3                 
1 41240U 16002A   26161.47836337 -.00000027  00000+0  13849-3 0  9994
2 41240  66.0395 139.9396 0008578 273.0630  86.9407 12.87627915486382
SENTINEL-3A             
1 41335U 16011A   26161.48409646  .00000078  00000+0  50395-4 0  9992
2 41335  98.6249 228.9637 0001369 103.8143 256.3190 14.26738099537103
ZIYUAN 3-02 (ZY 3-02)   
1 41556U 16033A   26161.54704803  .00004673  00000+0  21092-3 0  9997
2 41556  97.3837 237.4482 0011487 316.2857  43.7468 15.21416728556974
CARTOSAT-2C             
1 41599U 16040A   26161.47416263  .00003447  00000+0  16656-3 0  9992
2 41599  97.4490 221.5445 0010098 151.8205 208.3577 15.19264644552697
SKYSAT-C1               
1 41601U 16040C   26161.05133409  .00008604  00000+0  24608-3 0  9994
2 41601  96.9572 193.1585 0004048  71.6760 288.4925 15.36179993556778
LAPAN-A3                
1 41603U 16040E   26161.53358145  .00002996  00000+0  95978-4 0  9992
2 41603  97.1485 157.8980 0011600  47.4994 312.7227 15.33062269553793
